STARLINK-34466          
1 66226U 25244W   25317.25002315 -.01989124  00000+0 -23734-1 0  9990
2 66226  53.1594  55.6013 0000848  81.6181 288.1862 15.63756749  3793
STARLINK-34882          
1 66227U 25244X   25317.25002315 -.01989418  00000+0 -23737-1 0  9990
2 66227  53.1593  55.5968 0000863  82.3016 289.4198 15.63756847  3798
STARLINK-35731          
1 66228U 25244Y   25317.25002315 -.02007185  00000+0 -23960-1 0  9992
2 66228  53.1593  55.5930 0000963  76.8570 296.7656 15.63775394  3475
STARLINK-35758          
1 66229U 25244Z   25317.25002315 -.02007049  00000+0 -23958-1 0  9999
2 66229  53.1592  55.5894 0000905  76.6373 298.9013 15.63775951  3479
STARLINK-35736          
1 66230U 25244AA  25317.25002315 -.02005532  00000+0 -23939-1 0  9995
2 66230  53.1592  55.5853 0000970  78.3142 299.1435 15.63773618  3470
STARLINK-35735          
1 66231U 25244AB  25317.25002315 -.02006375  00000+0 -23951-1 0  9996
2 66231  53.1593  55.5815 0001014  62.8209 316.5532 15.63773356  3473
STARLINK-35753          
1 66232U 25244AC  25317.25002315 -.02004094  00000+0 -23920-1 0  9999
2 66232  53.1592  55.5784 0000888  83.8503 297.4408 15.63774585  3470
STARLINK-35626          
1 66233U 25244AD  25317.25002315 -.02005258  00000+0 -23934-1 0  9998
2 66233  53.1593  55.5741 0000975  85.1662 298.0409 15.63775436  3635
STARLINK-35537          
1 66234U 25245A   25317.25002315 -.00736232  00000+0 -53506-2 0  9990
2 66234  53.1550 110.1459 0000938  86.0106 263.8247 15.74725385  3365
STARLINK-35541          
1 66235U 25245B   25317.25002315 -.00621583  00000+0 -44727-2 0  9998
2 66235  53.1549 110.1416 0000923  81.5085 270.2996 15.74639509  3317
STARLINK-35454          
1 66236U 25245C   25317.25002315 -.00510181  00000+0 -36369-2 0  9993
2 66236  53.1551 110.1373 0001035  70.1490 283.6316 15.74548893  3209
STARLINK-35557          
1 66237U 25245D   25317.25002315 -.00342882  00000+0 -24081-2 0  9993
2 66237  53.1548 110.1330 0000947  89.2327 266.5323 15.74428348  3367
