CCSDS_OMM_VERS = 2.0
CREATION_DATE  = 
ORIGINATOR     = 

OBJECT_NAME    = STARLINK-34466
OBJECT_ID      = 2025-244W
CENTER_NAME    = EARTH
REF_FRAME      = TEME
TIME_SYSTEM    = UTC
MEAN_ELEMENT_THEORY = SGP/SGP4

EPOCH          = 2025-11-13T06:00:02.000160
MEAN_MOTION    = 15.63756749
ECCENTRICITY   = .00008484
INCLINATION    = 53.1594
RA_OF_ASC_NODE = 55.6013
ARG_OF_PERICENTER = 81.6181
MEAN_ANOMALY   = 288.1862

EPHEMERIS_TYPE = 0
CLASSIFICATION_TYPE = U
NORAD_CAT_ID   = 66226
ELEMENT_SET_NO = 999
REV_AT_EPOCH   = 379
BSTAR          = -.23733502E-1
MEAN_MOTION_DOT = -.1989124E-1
MEAN_MOTION_DDOT = 0

CCSDS_OMM_VERS = 2.0
CREATION_DATE  = 
ORIGINATOR     = 

OBJECT_NAME    = STARLINK-34882
OBJECT_ID      = 2025-244X
CENTER_NAME    = EARTH
REF_FRAME      = TEME
TIME_SYSTEM    = UTC
MEAN_ELEMENT_THEORY = SGP/SGP4

EPOCH          = 2025-11-13T06:00:02.000160
MEAN_MOTION    = 15.63756847
ECCENTRICITY   = .00008634
INCLINATION    = 53.1593
RA_OF_ASC_NODE = 55.5968
ARG_OF_PERICENTER = 82.3016
MEAN_ANOMALY   = 289.4198

EPHEMERIS_TYPE = 0
CLASSIFICATION_TYPE = U
NORAD_CAT_ID   = 66227
ELEMENT_SET_NO = 999
REV_AT_EPOCH   = 379
BSTAR          = -.23737266E-1
MEAN_MOTION_DOT = -.1989418E-1
MEAN_MOTION_DDOT = 0

CCSDS_OMM_VERS = 2.0
CREATION_DATE  = 
ORIGINATOR     = 

OBJECT_NAME    = STARLINK-35731
OBJECT_ID      = 2025-244Y
CENTER_NAME    = EARTH
REF_FRAME      = TEME
TIME_SYSTEM    = UTC
MEAN_ELEMENT_THEORY = SGP/SGP4

EPOCH          = 2025-11-13T06:00:02.000160
MEAN_MOTION    = 15.63775394
ECCENTRICITY   = .00009634
INCLINATION    = 53.1593
RA_OF_ASC_NODE = 55.5930
ARG_OF_PERICENTER = 76.8570
MEAN_ANOMALY   = 296.7656

EPHEMERIS_TYPE = 0
CLASSIFICATION_TYPE = U
NORAD_CAT_ID   = 66228
ELEMENT_SET_NO = 999
REV_AT_EPOCH   = 347
BSTAR          = -.2396027E-1
MEAN_MOTION_DOT = -.2007185E-1
MEAN_MOTION_DDOT = 0

CCSDS_OMM_VERS = 2.0
CREATION_DATE  = 
ORIGINATOR     = 

OBJECT_NAME    = STARLINK-35758
OBJECT_ID      = 2025-244Z
CENTER_NAME    = EARTH
REF_FRAME      = TEME
TIME_SYSTEM    = UTC
MEAN_ELEMENT_THEORY = SGP/SGP4

EPOCH          = 2025-11-13T06:00:02.000160
MEAN_MOTION    = 15.63775951
ECCENTRICITY   = .00009058
INCLINATION    = 53.1592
RA_OF_ASC_NODE = 55.5894
ARG_OF_PERICENTER = 76.6373
MEAN_ANOMALY   = 298.9013

EPHEMERIS_TYPE = 0
CLASSIFICATION_TYPE = U
NORAD_CAT_ID   = 66229
ELEMENT_SET_NO = 999
REV_AT_EPOCH   = 347
BSTAR          = -.2395845E-1
MEAN_MOTION_DOT = -.2007049E-1
MEAN_MOTION_DDOT = 0

CCSDS_OMM_VERS = 2.0
CREATION_DATE  = 
ORIGINATOR     = 

OBJECT_NAME    = STARLINK-35736
OBJECT_ID      = 2025-244AA
CENTER_NAME    = EARTH
REF_FRAME      = TEME
TIME_SYSTEM    = UTC
MEAN_ELEMENT_THEORY = SGP/SGP4

EPOCH          = 2025-11-13T06:00:02.000160
MEAN_MOTION    = 15.63773618
ECCENTRICITY   = .00009706
INCLINATION    = 53.1592
RA_OF_ASC_NODE = 55.5853
ARG_OF_PERICENTER = 78.3142
MEAN_ANOMALY   = 299.1435

EPHEMERIS_TYPE = 0
CLASSIFICATION_TYPE = U
NORAD_CAT_ID   = 66230
ELEMENT_SET_NO = 999
REV_AT_EPOCH   = 347
BSTAR          = -.23939391E-1
MEAN_MOTION_DOT = -.2005532E-1
MEAN_MOTION_DDOT = 0

CCSDS_OMM_VERS = 2.0
CREATION_DATE  = 
ORIGINATOR     = 

OBJECT_NAME    = STARLINK-35735
OBJECT_ID      = 2025-244AB
CENTER_NAME    = EARTH
REF_FRAME      = TEME
TIME_SYSTEM    = UTC
MEAN_ELEMENT_THEORY = SGP/SGP4

EPOCH          = 2025-11-13T06:00:02.000160
MEAN_MOTION    = 15.63773356
ECCENTRICITY   = .00010149
INCLINATION    = 53.1593
RA_OF_ASC_NODE = 55.5815
ARG_OF_PERICENTER = 62.8209
MEAN_ANOMALY   = 316.5532

EPHEMERIS_TYPE = 0
CLASSIFICATION_TYPE = U
NORAD_CAT_ID   = 66231
ELEMENT_SET_NO = 999
REV_AT_EPOCH   = 347
BSTAR          = -.23950673E-1
MEAN_MOTION_DOT = -.2006375E-1
MEAN_MOTION_DDOT = 0

CCSDS_OMM_VERS = 2.0
CREATION_DATE  = 
ORIGINATOR     = 

OBJECT_NAME    = STARLINK-35753
OBJECT_ID      = 2025-244AC
CENTER_NAME    = EARTH
REF_FRAME      = TEME
TIME_SYSTEM    = UTC
MEAN_ELEMENT_THEORY = SGP/SGP4

EPOCH          = 2025-11-13T06:00:02.000160
MEAN_MOTION    = 15.63774585
ECCENTRICITY   = .00008885
INCLINATION    = 53.1592
RA_OF_ASC_NODE = 55.5784
ARG_OF_PERICENTER = 83.8503
MEAN_ANOMALY   = 297.4408

EPHEMERIS_TYPE = 0
CLASSIFICATION_TYPE = U
NORAD_CAT_ID   = 66232
ELEMENT_SET_NO = 999
REV_AT_EPOCH   = 347
BSTAR          = -.23919711E-1
MEAN_MOTION_DOT = -.2004094E-1
MEAN_MOTION_DDOT = 0

CCSDS_OMM_VERS = 2.0
CREATION_DATE  = 
ORIGINATOR     = 

OBJECT_NAME    = STARLINK-35626
OBJECT_ID      = 2025-244AD
CENTER_NAME    = EARTH
REF_FRAME      = TEME
TIME_SYSTEM    = UTC
MEAN_ELEMENT_THEORY = SGP/SGP4

EPOCH          = 2025-11-13T06:00:02.000160
MEAN_MOTION    = 15.63775436
ECCENTRICITY   = .00009755
INCLINATION    = 53.1593
RA_OF_ASC_NODE = 55.5741
ARG_OF_PERICENTER = 85.1662
MEAN_ANOMALY   = 298.0409

EPHEMERIS_TYPE = 0
CLASSIFICATION_TYPE = U
NORAD_CAT_ID   = 66233
ELEMENT_SET_NO = 999
REV_AT_EPOCH   = 363
BSTAR          = -.2393388E-1
MEAN_MOTION_DOT = -.2005258E-1
MEAN_MOTION_DDOT = 0

CCSDS_OMM_VERS = 2.0
CREATION_DATE  = 
ORIGINATOR     = 

OBJECT_NAME    = STARLINK-35537
OBJECT_ID      = 2025-245A
CENTER_NAME    = EARTH
REF_FRAME      = TEME
TIME_SYSTEM    = UTC
MEAN_ELEMENT_THEORY = SGP/SGP4

EPOCH          = 2025-11-13T06:00:02.000160
MEAN_MOTION    = 15.74725385
ECCENTRICITY   = .00009386
INCLINATION    = 53.1550
RA_OF_ASC_NODE = 110.1459
ARG_OF_PERICENTER = 86.0106
MEAN_ANOMALY   = 263.8247

EPHEMERIS_TYPE = 0
CLASSIFICATION_TYPE = U
NORAD_CAT_ID   = 66234
ELEMENT_SET_NO = 999
REV_AT_EPOCH   = 336
BSTAR          = -.53505583E-2
MEAN_MOTION_DOT = -.736232E-2
MEAN_MOTION_DDOT = 0

CCSDS_OMM_VERS = 2.0
CREATION_DATE  = 
ORIGINATOR     = 

OBJECT_NAME    = STARLINK-35541
OBJECT_ID      = 2025-245B
CENTER_NAME    = EARTH
REF_FRAME      = TEME
TIME_SYSTEM    = UTC
MEAN_ELEMENT_THEORY = SGP/SGP4

EPOCH          = 2025-11-13T06:00:02.000160
MEAN_MOTION    = 15.74639509
ECCENTRICITY   = .00009232
INCLINATION    = 53.1549
RA_OF_ASC_NODE = 110.1416
ARG_OF_PERICENTER = 81.5085
MEAN_ANOMALY   = 270.2996

EPHEMERIS_TYPE = 0
CLASSIFICATION_TYPE = U
NORAD_CAT_ID   = 66235
ELEMENT_SET_NO = 999
REV_AT_EPOCH   = 331
BSTAR          = -.44727032E-2
MEAN_MOTION_DOT = -.621583E-2
MEAN_MOTION_DDOT = 0

CCSDS_OMM_VERS = 2.0
CREATION_DATE  = 
ORIGINATOR     = 

OBJECT_NAME    = STARLINK-35454
OBJECT_ID      = 2025-245C
CENTER_NAME    = EARTH
REF_FRAME      = TEME
TIME_SYSTEM    = UTC
MEAN_ELEMENT_THEORY = SGP/SGP4

EPOCH          = 2025-11-13T06:00:02.000160
MEAN_MOTION    = 15.74548893
ECCENTRICITY   = .00010352
INCLINATION    = 53.1551
RA_OF_ASC_NODE = 110.1373
ARG_OF_PERICENTER = 70.1490
MEAN_ANOMALY   = 283.6316

EPHEMERIS_TYPE = 0
CLASSIFICATION_TYPE = U
NORAD_CAT_ID   = 66236
ELEMENT_SET_NO = 999
REV_AT_EPOCH   = 320
BSTAR          = -.36369097E-2
MEAN_MOTION_DOT = -.510181E-2
MEAN_MOTION_DDOT = 0

CCSDS_OMM_VERS = 2.0
CREATION_DATE  = 
ORIGINATOR     = 

OBJECT_NAME    = STARLINK-35557
OBJECT_ID      = 2025-245D
CENTER_NAME    = EARTH
REF_FRAME      = TEME
TIME_SYSTEM    = UTC
MEAN_ELEMENT_THEORY = SGP/SGP4

EPOCH          = 2025-11-13T06:00:02.000160
MEAN_MOTION    = 15.74428348
ECCENTRICITY   = .00009479
INCLINATION    = 53.1548
RA_OF_ASC_NODE = 110.1330
ARG_OF_PERICENTER = 89.2327
MEAN_ANOMALY   = 266.5323

EPHEMERIS_TYPE = 0
CLASSIFICATION_TYPE = U
NORAD_CAT_ID   = 66237
ELEMENT_SET_NO = 999
REV_AT_EPOCH   = 336
BSTAR          = -.24081429E-2
MEAN_MOTION_DOT = -.342882E-2
MEAN_MOTION_DDOT = 0

